ONEWEB-0020             
1 45133U 20008C   23361.65275367  .00000231  00000+0  62530-3 0  9996
2 45133  87.8907 215.5189 0001635  82.2250 277.9063 13.10378363190146
ONEWEB-0021             
1 45134U 20008D   23361.66738728  .00000641  00000+0  18009-2 0  9999
2 45134  87.8908 215.5236 0001450  86.9603 273.1690 13.10372194190453
ONEWEB-0023             
1 45136U 20008F   23361.60398914  .00000364  00000+0  10063-2 0  9998
2 45136  87.8904 215.5281 0001291  63.4634 296.6625 13.10373370190622
ONEWEB-0024             
1 45137U 20008G   23361.65111608  .00000150  00000+0  39448-3 0  9999
2 45137  87.8899 215.5244 0001436  88.7443 271.3849 13.10374286190045
ONEWEB-0025             
1 45138U 20008H   23361.66899176  .00000668  00000+0  18772-2 0  9994
2 45138  87.8897 215.5199 0001178  86.8800 273.2462 13.10374560190375
ONEWEB-0026             
1 45139U 20008J   23361.64307627 -.00113043  00000+0 -32418+0 0  9992
2 45139  87.8969 200.4181 0001736  80.2406 279.8918 13.11146491192810
ONEWEB-0028             
1 45140U 20008K   23361.59853476 -.00000317  00000+0 -92963-3 0  9990
2 45140  87.8958 200.4732 0000759  93.3046 266.8169 13.11419676190327
